{"fetched_at":"2026-07-19T07:04:50.778Z","source":"https://celestrak.org/NORAD/elements/gp.php?GROUP=planet&FORMAT=JSON","constellation":"superdove","records":[{"OBJECT_NAME":"FLOCK 4G-33","OBJECT_ID":"2025-009CE","EPOCH":"2026-07-18T19:06:04.336128","CLASSIFICATION_TYPE":"U","MEAN_MOTION":15.25821891,"ECCENTRICITY":0.0005041,"INCLINATION":97.3938,"RA_OF_ASC_NODE":279.3099,"ARG_OF_PERICENTER":199.9248,"MEAN_ANOMALY":160.1795,"EPHEMERIS_TYPE":0,"NORAD_CAT_ID":62685,"ELEMENT_SET_NO":999,"REV_AT_EPOCH":8362,"BSTAR":0.00012413,"MEAN_MOTION_DOT":0.00003102,"MEAN_MOTION_DDOT":0},{"OBJECT_NAME":"FLOCK 4H-1","OBJECT_ID":"2025-276AQ","EPOCH":"2026-07-18T18:21:05.448096","CLASSIFICATION_TYPE":"U","MEAN_MOTION":15.20875839,"ECCENTRICITY":0.0002353,"INCLINATION":97.4165,"RA_OF_ASC_NODE":272.9557,"ARG_OF_PERICENTER":164.6449,"MEAN_ANOMALY":195.4859,"EPHEMERIS_TYPE":0,"NORAD_CAT_ID":66704,"ELEMENT_SET_NO":999,"REV_AT_EPOCH":3523,"BSTAR":0.00015021,"MEAN_MOTION_DOT":0.0000325,"MEAN_MOTION_DDOT":0},{"OBJECT_NAME":"FLOCK 4H-2","OBJECT_ID":"2025-276AR","EPOCH":"2026-07-18T17:42:17.945280","CLASSIFICATION_TYPE":"U","MEAN_MOTION":15.21147431,"ECCENTRICITY":0.0001834,"INCLINATION":97.4157,"RA_OF_ASC_NODE":272.9791,"ARG_OF_PERICENTER":150.2292,"MEAN_ANOMALY":209.9049,"EPHEMERIS_TYPE":0,"NORAD_CAT_ID":66705,"ELEMENT_SET_NO":999,"REV_AT_EPOCH":3523,"BSTAR":0.00014919,"MEAN_MOTION_DOT":0.00003253,"MEAN_MOTION_DDOT":0},{"OBJECT_NAME":"FLOCK 4H-3","OBJECT_ID":"2025-276AS","EPOCH":"2026-07-18T17:30:53.328096","CLASSIFICATION_TYPE":"U","MEAN_MOTION":15.20267451,"ECCENTRICITY":0.0002784,"INCLINATION":97.4227,"RA_OF_ASC_NODE":272.8946,"ARG_OF_PERICENTER":229.8268,"MEAN_ANOMALY":130.2723,"EPHEMERIS_TYPE":0,"NORAD_CAT_ID":66706,"ELEMENT_SET_NO":999,"REV_AT_EPOCH":3521,"BSTAR":0.00013906,"MEAN_MOTION_DOT":0.0000295,"MEAN_MOTION_DDOT":0},{"OBJECT_NAME":"FLOCK 4H-4","OBJECT_ID":"2025-276AT","EPOCH":"2026-07-18T18:23:31.502112","CLASSIFICATION_TYPE":"U","MEAN_MOTION":15.20060527,"ECCENTRICITY":0.0003393,"INCLINATION":97.4211,"RA_OF_ASC_NODE":272.7959,"ARG_OF_PERICENTER":235.8423,"MEAN_ANOMALY":124.2491,"EPHEMERIS_TYPE":0,"NORAD_CAT_ID":66707,"ELEMENT_SET_NO":999,"REV_AT_EPOCH":3521,"BSTAR":0.00015753,"MEAN_MOTION_DOT":0.0000333,"MEAN_MOTION_DDOT":0},{"OBJECT_NAME":"FLOCK 4H-5","OBJECT_ID":"2025-276AU","EPOCH":"2026-07-18T18:09:46.599840","CLASSIFICATION_TYPE":"U","MEAN_MOTION":15.20927455,"ECCENTRICITY":0.0001551,"INCLINATION":97.4161,"RA_OF_ASC_NODE":272.9695,"ARG_OF_PERICENTER":137.7877,"MEAN_ANOMALY":222.3478,"EPHEMERIS_TYPE":0,"NORAD_CAT_ID":66708,"ELEMENT_SET_NO":999,"REV_AT_EPOCH":3523,"BSTAR":0.00015223,"MEAN_MOTION_DOT":0.00003299,"MEAN_MOTION_DDOT":0},{"OBJECT_NAME":"FLOCK 4H-6","OBJECT_ID":"2025-276AV","EPOCH":"2026-07-18T17:42:13.320288","CLASSIFICATION_TYPE":"U","MEAN_MOTION":15.20627521,"ECCENTRICITY":0.0002827,"INCLINATION":97.4214,"RA_OF_ASC_NODE":272.9949,"ARG_OF_PERICENTER":190.7353,"MEAN_ANOMALY":169.3822,"EPHEMERIS_TYPE":0,"NORAD_CAT_ID":66709,"ELEMENT_SET_NO":999,"REV_AT_EPOCH":3522,"BSTAR":0.00014618,"MEAN_MOTION_DOT":0.00003138,"MEAN_MOTION_DDOT":0},{"OBJECT_NAME":"FLOCK 4H-7","OBJECT_ID":"2025-276AW","EPOCH":"2026-07-18T18:51:31.032576","CLASSIFICATION_TYPE":"U","MEAN_MOTION":15.20405437,"ECCENTRICITY":0.0000666,"INCLINATION":97.4169,"RA_OF_ASC_NODE":272.7967,"ARG_OF_PERICENTER":256.3967,"MEAN_ANOMALY":103.7194,"EPHEMERIS_TYPE":0,"NORAD_CAT_ID":66710,"ELEMENT_SET_NO":999,"REV_AT_EPOCH":3522,"BSTAR":0.00015222,"MEAN_MOTION_DOT":0.00003249,"MEAN_MOTION_DDOT":0},{"OBJECT_NAME":"FLOCK 4H-8","OBJECT_ID":"2025-276AX","EPOCH":"2026-07-18T10:44:12.507936","CLASSIFICATION_TYPE":"U","MEAN_MOTION":15.20510875,"ECCENTRICITY":0.00020081,"INCLINATION":97.4212,"RA_OF_ASC_NODE":272.6158,"ARG_OF_PERICENTER":249.0396,"MEAN_ANOMALY":111.0624,"EPHEMERIS_TYPE":0,"NORAD_CAT_ID":66711,"ELEMENT_SET_NO":999,"REV_AT_EPOCH":3517,"BSTAR":0.00015033419,"MEAN_MOTION_DOT":0.00003217,"MEAN_MOTION_DDOT":0},{"OBJECT_NAME":"FLOCK 4H-9","OBJECT_ID":"2025-276AY","EPOCH":"2026-07-18T17:22:09.072768","CLASSIFICATION_TYPE":"U","MEAN_MOTION":15.20814261,"ECCENTRICITY":0.0002799,"INCLINATION":97.4201,"RA_OF_ASC_NODE":272.9836,"ARG_OF_PERICENTER":199.0962,"MEAN_ANOMALY":161.0169,"EPHEMERIS_TYPE":0,"NORAD_CAT_ID":66712,"ELEMENT_SET_NO":999,"REV_AT_EPOCH":3522,"BSTAR":0.00015095,"MEAN_MOTION_DOT":0.0000326,"MEAN_MOTION_DDOT":0},{"OBJECT_NAME":"FLOCK 4H-10","OBJECT_ID":"2025-276AZ","EPOCH":"2026-07-18T18:00:09.751104","CLASSIFICATION_TYPE":"U","MEAN_MOTION":15.20188363,"ECCENTRICITY":0.0003151,"INCLINATION":97.4177,"RA_OF_ASC_NODE":272.7144,"ARG_OF_PERICENTER":236.4317,"MEAN_ANOMALY":123.6618,"EPHEMERIS_TYPE":0,"NORAD_CAT_ID":66713,"ELEMENT_SET_NO":999,"REV_AT_EPOCH":3521,"BSTAR":0.00016548,"MEAN_MOTION_DOT":0.00003515,"MEAN_MOTION_DDOT":0},{"OBJECT_NAME":"FLOCK 4H-11","OBJECT_ID":"2025-276BA","EPOCH":"2026-07-18T16:51:01.177344","CLASSIFICATION_TYPE":"U","MEAN_MOTION":15.23379316,"ECCENTRICITY":0.0001793,"INCLINATION":97.4184,"RA_OF_ASC_NODE":273.2774,"ARG_OF_PERICENTER":224.8237,"MEAN_ANOMALY":135.2855,"EPHEMERIS_TYPE":0,"NORAD_CAT_ID":66714,"ELEMENT_SET_NO":999,"REV_AT_EPOCH":3524,"BSTAR":0.00029196,"MEAN_MOTION_DOT":0.00006873,"MEAN_MOTION_DDOT":0},{"OBJECT_NAME":"FLOCK 4H-12","OBJECT_ID":"2025-276BB","EPOCH":"2026-07-18T04:25:27.122880","CLASSIFICATION_TYPE":"U","MEAN_MOTION":15.20837043,"ECCENTRICITY":0.00021506,"INCLINATION":97.4176,"RA_OF_ASC_NODE":272.3874,"ARG_OF_PERICENTER":172.5771,"MEAN_ANOMALY":187.5497,"EPHEMERIS_TYPE":0,"NORAD_CAT_ID":66715,"ELEMENT_SET_NO":999,"REV_AT_EPOCH":3545,"BSTAR":0.00015258118,"MEAN_MOTION_DOT":0.00003298,"MEAN_MOTION_DDOT":0},{"OBJECT_NAME":"FLOCK 4H-13","OBJECT_ID":"2025-276BC","EPOCH":"2026-07-18T16:20:45.202272","CLASSIFICATION_TYPE":"U","MEAN_MOTION":15.20942789,"ECCENTRICITY":0.0002164,"INCLINATION":97.4208,"RA_OF_ASC_NODE":273.0518,"ARG_OF_PERICENTER":138.8761,"MEAN_ANOMALY":221.2638,"EPHEMERIS_TYPE":0,"NORAD_CAT_ID":66716,"ELEMENT_SET_NO":999,"REV_AT_EPOCH":3522,"BSTAR":0.00016798,"MEAN_MOTION_DOT":0.00003649,"MEAN_MOTION_DDOT":0},{"OBJECT_NAME":"FLOCK 4H-14","OBJECT_ID":"2025-276BD","EPOCH":"2026-07-18T18:31:45.206400","CLASSIFICATION_TYPE":"U","MEAN_MOTION":15.21391163,"ECCENTRICITY":0.0002007,"INCLINATION":97.419,"RA_OF_ASC_NODE":273.1897,"ARG_OF_PERICENTER":137.2899,"MEAN_ANOMALY":222.8493,"EPHEMERIS_TYPE":0,"NORAD_CAT_ID":66717,"ELEMENT_SET_NO":999,"REV_AT_EPOCH":3449,"BSTAR":0.00015322,"MEAN_MOTION_DOT":0.00003367,"MEAN_MOTION_DDOT":0},{"OBJECT_NAME":"FLOCK 4H-15","OBJECT_ID":"2025-276BE","EPOCH":"2026-07-18T15:40:24.695040","CLASSIFICATION_TYPE":"U","MEAN_MOTION":15.1990668,"ECCENTRICITY":0.0002753,"INCLINATION":97.4205,"RA_OF_ASC_NODE":272.6241,"ARG_OF_PERICENTER":254.7693,"MEAN_ANOMALY":105.3238,"EPHEMERIS_TYPE":0,"NORAD_CAT_ID":66718,"ELEMENT_SET_NO":999,"REV_AT_EPOCH":3519,"BSTAR":0.0001418,"MEAN_MOTION_DOT":0.00002977,"MEAN_MOTION_DDOT":0}]}
