FLOCK 4G-33             
1 62685U 25009CE  26199.79588352  .00003102  00000+0  12413-3 0  9996
2 62685  97.3938 279.3099 0005041 199.9248 160.1795 15.25821891 83629
FLOCK 4H-1              
1 66704U 25276AQ  26199.76464639  .00003250  00000+0  15021-3 0  9998
2 66704  97.4165 272.9557 0002353 164.6449 195.4859 15.20875839 35233
FLOCK 4H-2              
1 66705U 25276AR  26199.73770770  .00003253  00000+0  14919-3 0  9990
2 66705  97.4157 272.9791 0001834 150.2292 209.9049 15.21147431 35238
FLOCK 4H-3              
1 66706U 25276AS  26199.72978389  .00002950  00000+0  13906-3 0  9994
2 66706  97.4227 272.8946 0002784 229.8268 130.2723 15.20267451 35216
FLOCK 4H-4              
1 66707U 25276AT  26199.76633683  .00003330  00000+0  15753-3 0  9999
2 66707  97.4211 272.7959 0003393 235.8423 124.2491 15.20060527 35210
FLOCK 4H-5              
1 66708U 25276AU  26199.75678935  .00003299  00000+0  15223-3 0  9994
2 66708  97.4161 272.9695 0001551 137.7877 222.3478 15.20927455 35230
FLOCK 4H-6              
1 66709U 25276AV  26199.73765417  .00003138  00000+0  14618-3 0  9994
2 66709  97.4214 272.9949 0002827 190.7353 169.3822 15.20627521 35220
FLOCK 4H-7              
1 66710U 25276AW  26199.78577584  .00003249  00000+0  15222-3 0  9992
2 66710  97.4169 272.7967 0000666 256.3967 103.7194 15.20405437 35222
FLOCK 4H-8              
1 66711U 25276AX  26199.44736699  .00003217  00000+0  15033-3 0  9995
2 66711  97.4212 272.6158 0002008 249.0396 111.0624 15.20510875 35177
FLOCK 4H-9              
1 66712U 25276AY  26199.72371612  .00003260  00000+0  15095-3 0  9993
2 66712  97.4201 272.9836 0002799 199.0962 161.0169 15.20814261 35223
FLOCK 4H-10             
1 66713U 25276AZ  26199.75011286  .00003515  00000+0  16548-3 0  9992
2 66713  97.4177 272.7144 0003151 236.4317 123.6618 15.20188363 35218
FLOCK 4H-11             
1 66714U 25276BA  26199.70209696  .00006873  00000+0  29196-3 0  9995
2 66714  97.4184 273.2774 0001793 224.8237 135.2855 15.23379316 35242
FLOCK 4H-12             
1 66715U 25276BB  26199.18434170  .00003298  00000+0  15258-3 0  9997
2 66715  97.4176 272.3874 0002150 172.5771 187.5497 15.20837043 35453
FLOCK 4H-13             
1 66716U 25276BC  26199.68107873  .00003649  00000+0  16798-3 0  9990
2 66716  97.4208 273.0518 0002164 138.8761 221.2638 15.20942789 35224
FLOCK 4H-14             
1 66717U 25276BD  26199.77205100  .00003367  00000+0  15322-3 0  9992
2 66717  97.4190 273.1897 0002007 137.2899 222.8493 15.21391163 34496
FLOCK 4H-15             
1 66718U 25276BE  26199.65306360  .00002977  00000+0  14180-3 0  9997
2 66718  97.4205 272.6241 0002753 254.7693 105.3238 15.19906680 35199
